NORAD_CAT_ID,OBJECT_NAME,OBJECT_TYPE,EPOCH,MEAN_MOTION,ECCENTRICITY,INCLINATION,RA_OF_ASC_NODE,ARG_OF_PERICENTER,MEAN_ANOMALY,BSTAR,MEAN_MOTION_DOT,MEAN_MOTION_DDOT,TLE_LINE0,TLE_LINE1,TLE_LINE2,SEMIMAJOR_AXIS,PERIOD,APOGEE,PERIGEE,DECAYED
54776.0,STARLINK-5470,PAYLOAD,2023-05-03 18:52:26,15.08836397,0.0001032,53.2193,36.5196,91.0746,269.0365,-0.00011021,-2.041e-05,0.0,0 STARLINK-5470,1 54776U 22175U   23123.78641438 -.00002041  00000-0 -11021-3 0  9995,2 54776  53.2193  36.5196 0001032  91.0746 269.0365 15.08836397 20628,6917.891,95.438,540.47,539.042,0.0
54776.0,STARLINK-5470,PAYLOAD,2023-05-04 10:46:17,15.08838321,9.25e-05,53.2188,33.5442,93.2739,266.8359,-4.0692e-05,-9.35e-06,0.0,0 STARLINK-5470,1 54776U 22175U   23124.44881263 -.00000935  00000-0 -40692-4 0  9998,2 54776  53.2188  33.5442 0000925  93.2739 266.8359 15.08838321 22886,6917.886,95.438,540.39,539.111,0.0
54776.0,STARLINK-5470,PAYLOAD,2023-05-04 21:53:59,15.08838347,0.0001077,53.2184,31.4624,98.1236,261.9878,7.3765e-05,8.86e-06,0.0,0 STARLINK-5470,1 54776U 22175U   23124.91249559  .00000886  00000-0  73765-4 0  9996,2 54776  53.2184  31.4624 0001077  98.1236 261.9878 15.08838347 22954,6917.885,95.438,540.495,539.005,0.0
54776.0,STARLINK-5470,PAYLOAD,2023-05-05 02:40:08,15.0884845,0.000114,53.2179,30.5705,98.728,261.3841,-4.306e-06,-3.56e-06,0.0,0 STARLINK-5470,1 54776U 22175U   23125.11121013 -.00000356  00000-0 -43060-5 0  9993,2 54776  53.2179  30.5705 0001140  98.7280 261.3841 15.08848450 20828,6917.855,95.437,540.508,538.931,0.0
54776.0,STARLINK-5470,PAYLOAD,2023-05-06 00:55:33,15.08840928,0.0001028,53.218,26.4073,98.795,261.3159,9.9675e-05,1.299e-05,0.0,0 STARLINK-5470,1 54776U 22175U   23126.03857679  .00001299  00000-0  99675-4 0  9996,2 54776  53.2180  26.4073 0001028  98.7950 261.3159 15.08840928 20960,6917.878,95.437,540.454,539.031,0.0
54776.0,STARLINK-5470,PAYLOAD,2023-05-07 02:21:41,15.08880839,9.18e-05,53.2179,21.6497,82.0927,278.017,0.00062326,9.656e-05,0.0,0 STARLINK-5470,1 54776U 22175U   23127.09839696  .00009656  00000-0  62326-3 0  9999,2 54776  53.2179  21.6497 0000918  82.0927 278.0170 15.08880839 21124,6917.756,95.435,540.256,538.986,0.0
54776.0,STARLINK-5470,PAYLOAD,2023-05-07 21:26:21,15.08826012,8.71e-05,53.2183,18.0799,92.5806,267.5286,-0.0001455,-2.602e-05,0.0,0 STARLINK-5470,1 54776U 22175U   23127.89330519 -.00002602  00000-0 -14550-3 0  9999,2 54776  53.2183  18.0799 0000871  92.5806 267.5286 15.08826012 23401,6917.923,95.438,540.391,539.186,0.0
54776.0,STARLINK-5470,PAYLOAD,2023-05-08 03:47:54,15.08827036,9.96e-05,53.2178,16.8949,70.2938,289.8161,-8.2649e-05,-1.602e-05,0.0,0 STARLINK-5470,1 54776U 22175U   23128.15826629 -.00001602  00000-0 -82649-4 0  9995,2 54776  53.2178  16.8949 0000996  70.2938 289.8161 15.08827036 21285,6917.92,95.438,540.474,539.096,0.0
54776.0,STARLINK-5470,PAYLOAD,2023-05-08 19:41:44,15.08852033,0.0001189,53.2186,13.9178,86.0621,274.0507,-7.5843e-05,-1.495e-05,0.0,0 STARLINK-5470,1 54776U 22175U   23128.82065392 -.00001495  00000-0 -75843-4 0  9999,2 54776  53.2186  13.9178 0001189  86.0621 274.0507 15.08852033 21381,6917.844,95.437,540.531,538.886,0.0
54776.0,STARLINK-5470,PAYLOAD,2023-05-08 21:17:08,15.08843996,0.0001189,53.2199,13.6218,77.6382,282.4744,7.7848e-05,9.51e-06,0.0,0 STARLINK-5470,1 54776U 22175U   23128.88689815  .00000951  00000-0  77848-4 0  9998,2 54776  53.2199  13.6218 0001189  77.6382 282.4744 15.08843996 23552,6917.868,95.437,540.556,538.911,0.0
54776.0,STARLINK-5470,PAYLOAD,2023-05-08 22:52:31,15.0885371,0.000121,53.2179,13.3247,87.0472,273.0658,0.00033532,5.055e-05,0.0,0 STARLINK-5470,1 54776U 22175U   23128.95314092  .00005055  00000-0  33532-3 0  9999,2 54776  53.2179  13.3247 0001210  87.0472 273.0658 15.08853710 23565,6917.838,95.437,540.541,538.866,0.0
54776.0,STARLINK-5470,PAYLOAD,2023-05-09 22:43:18,15.08848569,0.0001382,53.218,8.867,82.6964,277.4186,0.00040197,6.117e-05,0.0,0 STARLINK-5470,1 54776U 22175U   23129.94674505  .00006117  00000-0  40197-3 0  9992,2 54776  53.2180   8.8670 0001382  82.6964 277.4186 15.08848569 23710,6917.854,95.437,540.675,538.763,0.0
54776.0,STARLINK-5470,PAYLOAD,2023-05-10 19:23:19,15.08845767,0.0001358,53.2188,5.0005,80.7407,279.3738,7.4177e-05,8.93e-06,0.0,0 STARLINK-5470,1 54776U 22175U   23130.80786298  .00000893  00000-0  74177-4 0  9993,2 54776  53.2188   5.0005 0001358  80.7407 279.3738 15.08845767 23848,6917.863,95.437,540.667,538.788,0.0
54776.0,STARLINK-5470,PAYLOAD,2023-05-10 22:34:05,15.08854144,0.0001443,53.2191,4.4082,110.2531,249.8616,0.00012117,1.642e-05,0.0,0 STARLINK-5470,1 54776U 22175U   23130.94033701  .00001642  00000-0  12117-3 0  9990,2 54776  53.2191   4.4082 0001443 110.2531 249.8616 15.08854144 21701,6917.837,95.437,540.7,538.704,0.0
54776.0,STARLINK-5470,PAYLOAD,2023-05-11 22:24:52,15.08838173,0.0001182,53.2184,359.9439,87.199,272.9138,-3.2324e-05,-8.02e-06,0.0,0 STARLINK-5470,1 54776U 22175U   23131.93394384 -.00000802  00000-0 -32324-4 0  9999,2 54776  53.2184 359.9439 0001182  87.1990 272.9138 15.08838173 21854,6917.886,95.438,540.569,538.933,0.0
54776.0,STARLINK-5470,PAYLOAD,2023-05-12 22:15:39,15.0884538,0.0001124,53.2183,355.4852,103.0809,257.0309,0.00016911,2.405e-05,0.0,0 STARLINK-5470,1 54776U 22175U   23132.92754410  .00002405  00000-0  16911-3 0  9991,2 54776  53.2183 355.4852 0001124 103.0809 257.0309 15.08845380 22006,6917.864,95.437,540.507,538.951,0.0
54776.0,STARLINK-5470,PAYLOAD,2023-05-13 18:55:40,15.08840266,0.000107,53.218,351.6192,109.4918,250.619,0.00011472,1.538e-05,0.0,0 STARLINK-5470,1 54776U 22175U   23133.78866642  .00001538  00000-0  11472-3 0  9990,2 54776  53.2180 351.6192 0001070 109.4918 250.6190 15.08840266 22138,6917.88,95.438,540.485,539.004,0.0
54776.0,STARLINK-5470,PAYLOAD,2023-05-13 20:31:03,15.08842155,0.0001089,53.218,351.3218,108.0954,252.0157,0.00015276,2.144e-05,0.0,0 STARLINK-5470,1 54776U 22175U   23133.85490620  .00002144  00000-0  15276-3 0  9997,2 54776  53.2180 351.3218 0001089 108.0954 252.0157 15.08842155 24308,6917.874,95.437,540.492,538.985,0.0
54776.0,STARLINK-5470,PAYLOAD,2023-05-13 22:06:27,15.08839103,0.0001146,53.2183,351.0243,105.2,254.9119,0.00034181,5.156e-05,0.0,0 STARLINK-5470,1 54776U 22175U   23133.92114821  .00005156  00000-0  34181-3 0  9993,2 54776  53.2183 351.0243 0001146 105.2000 254.9119 15.08839103 24310,6917.883,95.438,540.541,538.955,0.0
54776.0,STARLINK-5470,PAYLOAD,2023-05-14 20:21:51,15.08840279,0.0001162,53.2185,346.8594,89.3398,270.7727,2.9576e-06,-2.41e-06,0.0,0 STARLINK-5470,1 54776U 22175U   23134.84850902 -.00000241  00000-0  29576-5 0  9997,2 54776  53.2185 346.8594 0001162  89.3398 270.7727 15.08840279 22295,6917.88,95.438,540.548,538.941,0.0
54776.0,STARLINK-5470,PAYLOAD,2023-05-15 20:12:36,15.08877714,7.04e-05,53.2187,342.395,105.1419,254.9651,0.00053397,8.229e-05,0.0,0 STARLINK-5470,1 54776U 22175U   23135.84208403  .00008229  00000-0  53397-3 0  9990,2 54776  53.2187 342.3950 0000704 105.1419 254.9651 15.08877714 22447,6917.765,95.435,540.117,539.143,0.0
54776.0,STARLINK-5470,PAYLOAD,2023-05-16 13:41:51,15.08848369,6.18e-05,53.2182,339.1292,37.1582,322.9453,-2.0058e-05,-6.07e-06,0.0,0 STARLINK-5470,1 54776U 22175U   23136.57073479 -.00000607  00000-0 -20058-4 0  9997,2 54776  53.2182 339.1292 0000618  37.1582 322.9453 15.08848369 24716,6917.855,95.437,540.147,539.292,0.0
54776.0,STARLINK-5470,PAYLOAD,2023-05-16 20:03:24,15.08831586,0.0001047,53.2184,337.9398,78.7323,281.3787,-0.00026834,-4.555e-05,0.0,0 STARLINK-5470,1 54776U 22175U   23136.83570219 -.00004555  00000-0 -26834-3 0  9993,2 54776  53.2184 337.9398 0001047  78.7323 281.3787 15.08831586 24757,6917.906,95.438,540.495,539.047,0.0
54776.0,STARLINK-5470,PAYLOAD,2023-05-17 02:24:57,15.088323,0.0001203,53.2179,336.7475,82.896,277.2169,-0.00018869,-3.289e-05,0.0,0 STARLINK-5470,1 54776U 22175U   23137.10066261 -.00003289  00000-0 -18869-3 0  9993,2 54776  53.2179 336.7475 0001203  82.8960 277.2169 15.08832300 22639,6917.904,95.438,540.601,538.937,0.0
54776.0,STARLINK-5470,PAYLOAD,2023-05-17 04:00:21,15.08831045,0.0001139,53.2172,336.4533,71.0592,289.0523,-0.00012948,-2.347e-05,0.0,0 STARLINK-5470,1 54776U 22175U   23137.16691133 -.00002347  00000-0 -12948-3 0  9997,2 54776  53.2172 336.4533 0001139  71.0592 289.0523 15.08831045 22644,6917.908,95.438,540.561,538.985,0.0
54776.0,STARLINK-5470,PAYLOAD,2023-05-17 19:54:11,15.08845572,9.57e-05,53.2185,333.4787,82.1472,277.9628,-0.00021399,-3.692e-05,0.0,0 STARLINK-5470,1 54776U 22175U   23137.82930371 -.00003692  00000-0 -21399-3 0  9994,2 54776  53.2185 333.4787 0000957  82.1472 277.9628 15.08845572 22746,6917.863,95.437,540.39,539.066,0.0
54776.0,STARLINK-5470,PAYLOAD,2023-05-18 11:48:03,15.08828623,0.00012,53.2175,330.5049,84.8759,275.237,0.0002788,4.151e-05,0.0,0 STARLINK-5470,1 54776U 22175U   23138.49171284  .00004151  00000-0  27880-3 0  9998,2 54776  53.2175 330.5049 0001200  84.8759 275.2370 15.08828623 22847,6917.915,95.438,540.61,538.95,0.0
54776.0,STARLINK-5470,PAYLOAD,2023-05-18 21:20:22,15.08840503,0.0001274,53.2174,328.721,84.7481,275.3656,0.00039798,6.052e-05,0.0,0 STARLINK-5470,1 54776U 22175U   23138.88915142  .00006052  00000-0  39798-3 0  9993,2 54776  53.2174 328.7210 0001274  84.7481 275.3656 15.08840503 25063,6917.879,95.438,540.625,538.863,0.0
54776.0,STARLINK-5470,PAYLOAD,2023-05-18 22:55:45,15.08844029,0.0001259,53.2174,328.4235,84.2299,275.8837,0.00045545,6.969e-05,0.0,0 STARLINK-5470,1 54776U 22175U   23138.95539053  .00006969  00000-0  45545-3 0  9998,2 54776  53.2174 328.4235 0001259  84.2299 275.8837 15.08844029 22916,6917.868,95.437,540.604,538.862,0.0
54776.0,STARLINK-5470,PAYLOAD,2023-05-19 14:49:37,15.08839573,0.0001278,53.2173,325.449,85.0101,275.1037,0.00020071,2.908e-05,0.0,0 STARLINK-5470,1 54776U 22175U   23139.61779322  .00002908  00000-0  20071-3 0  9993,2 54776  53.2173 325.4490 0001278  85.0101 275.1037 15.08839573 23012,6917.882,95.438,540.631,538.863,0.0
